SL-16 R/B               
1 25400U 98043G   26002.28642387  .00000167  00000+0  88931-4 0  9991
2 25400  98.8152 315.2223 0009384 201.6055 158.4730 14.26031495429522
SL-16 R/B               
1 25407U 98045B   26002.31913622 -.00000004  00000+0  21835-4 0  9998
2 25407  71.0127 321.1481 0005618 141.9574 218.1947 14.16181860417706
ISS (ZARYA)             
1 25544U 98067A   26002.24250498  .00016008  00000+0  29760-3 0  9995
2 25544  51.6329  40.9506 0007531 330.5355  29.5208 15.49029434546037
CZ-4B R/B               
1 25732U 99025C   26002.13889613  .00000142  00000+0  89222-4 0  9996
2 25732  98.6739  47.9597 0037228 174.8904 251.0713 14.18249337378738
OKEAN-O                 
1 25860U 99039A   26001.73171713  .00001538  00000+0  20921-3 0  9993
2 25860  97.9575  62.2580 0001326 114.0652 246.0699 14.80202605424485
SL-16 R/B               
1 25861U 99039B   26002.11284373  .00001170  00000+0  15542-3 0  9999
2 25861  98.0096  61.2625 0016044 111.7689 248.5233 14.81621778427001
DELTA 2 R/B             
1 25876U 99041E   26002.03526858  .00003043  00000+0  52717-3 0  9992
2 25876  51.7593 207.4250 0504188 151.5869 211.3565 14.11476195353611
HELIOS 1B               
1 25977U 99064A   26002.18802315  .00004109  00000+0  46087-3 0  9997
2 25977  98.1755 262.4603 0000433  42.7796 317.3453 14.87382124675379
TERRA                   
1 25994U 99068A   26002.28213814  .00000995  00000+0  21218-3 0  9999
2 25994  97.9720  58.2098 0003115  52.7142  11.7947 14.60929862385381
SL-16 R/B               
1 26070U 00006B   26002.10534054  .00000286  00000+0  16944-3 0  9995
2 26070  71.0015 237.8378 0018797 281.2890  78.6121 14.15813922339131
TITAN 4B R/B            
1 26474U 00047B   26002.22634168  .00005907  00000+0  37529-3 0  9995
2 26474  67.9884 227.3128 0037565 119.6691 240.8208 15.08952833382888
ENVISAT                 
1 27386U 02009A   25365.95019499  .00000264  00000+0  99422-4 0  9995
2 27386  98.3626 316.2065 0001107  88.1807 295.1197 14.39007536249430
